[{"OBJECT_NAME":"RAISE 2","OBJECT_ID":"2021-102C","EPOCH":"2026-03-09T15:24:00.371808","MEAN_MOTION":15.20242049,"ECCENTRICITY":0.0007134,"INCLINATION":97.3388,"RA_OF_ASC_NODE":104.317,"ARG_OF_PERICENTER":273.4447,"MEAN_ANOMALY":86.5972,"EPHEMERIS_TYPE":0,"CLASSIFICATION_TYPE":"U","NORAD_CAT_ID":49397,"ELEMENT_SET_NO":999,"REV_AT_EPOCH":23830,"BSTAR":0.00039057,"MEAN_MOTION_DOT":8.413e-5,"MEAN_MOTION_DDOT":0},{"OBJECT_NAME":"OBJECT D","OBJECT_ID":"2026-027D","EPOCH":"2026-03-09T23:02:32.268480","MEAN_MOTION":15.18179588,"ECCENTRICITY":0.00102807,"INCLINATION":97.4905,"RA_OF_ASC_NODE":197.9873,"ARG_OF_PERICENTER":203.4991,"MEAN_ANOMALY":156.5775,"EPHEMERIS_TYPE":0,"CLASSIFICATION_TYPE":"U","NORAD_CAT_ID":67749,"ELEMENT_SET_NO":999,"REV_AT_EPOCH":385,"BSTAR":0.00056517767,"MEAN_MOTION_DOT":0.00011507,"MEAN_MOTION_DDOT":0}]
